{"type": "FeatureCollection", "features": [ {"type": "Feature", "properties": {"norad_id": 65304, "name": "DRAGON CRS-33", "group": "stations", "lat": 43.60583012353647, "lon": 168.1289482233523, "alt_km": 413.86626400688056, "timestamp": "2025-12-17T10:52:53.122248+00:00", "meta": {"OBJECT_NAME": "DRAGON CRS-33", "OBJECT_ID": "2025-186A", "EPOCH": "2025-12-16T20:41:13.172928", "MEAN_MOTION": 15.49626059, "ECCENTRICITY": 0.00031782, "INCLINATION": 51.6308, "RA_OF_ASC_NODE": 122.0659, "ARG_OF_PERICENTER": 259.3256, "MEAN_ANOMALY": 100.7375, "EPHEMERIS_TYPE": 0, "CLASSIFICATION_TYPE": "U", "NORAD_CAT_ID": 65304, "ELEMENT_SET_NO": 999, "REV_AT_EPOCH": 11, "BSTAR": 0.00014251236, "MEAN_MOTION_DOT": 7.581e-05, "MEAN_MOTION_DDOT": 0}, "tle": {"line1": "1 65304U 25186A   25350.86195802  .00007581  00000+0  14251-3 0  9990", "line2": "2 65304  51.6308 122.0659 0003178 259.3256 100.7375 15.49626059   111"}}, "geometry": {"type": "Point", "coordinates": [168.1289482233523, 43.60583012353647]}}, {"type": "Feature", "properties": {"norad_id": 65586, "name": "PROGRESS-MS 32", "group": "stations", "lat": 43.60583045610669, "lon": 168.12894898866267, "alt_km": 413.866263964941, "timestamp": "2025-12-17T10:52:53.122258+00:00", "meta": {"OBJECT_NAME": "PROGRESS-MS 32", "OBJECT_ID": "2025-204A", "EPOCH": "2025-12-16T20:41:13.172928", "MEAN_MOTION": 15.49626059, "ECCENTRICITY": 0.00031782, "INCLINATION": 51.6308, "RA_OF_ASC_NODE": 122.0659, "ARG_OF_PERICENTER": 259.3256, "MEAN_ANOMALY": 100.7375, "EPHEMERIS_TYPE": 0, "CLASSIFICATION_TYPE": "U", "NORAD_CAT_ID": 65586, "ELEMENT_SET_NO": 999, "REV_AT_EPOCH": 27, "BSTAR": 0.00014251236, "MEAN_MOTION_DOT": 7.581e-05, "MEAN_MOTION_DDOT": 0}, "tle": {"line1": "1 65586U 25204A   25350.86195802  .00007581  00000+0  14251-3 0  9993", "line2": "2 65586  51.6308 122.0659 0003178 259.3256 100.7375 15.49626059   270"}}, "geometry": {"type": "Point", "coordinates": [168.12894898866267, 43.60583045610669]}}, {"type": "Feature", "properties": {"norad_id": 65616, "name": "CYGNUS NG-23", "group": "stations", "lat": 43.605830788676066, "lon": 168.12894975397109, "alt_km": 413.86626392299877, "timestamp": "2025-12-17T10:52:53.122268+00:00", "meta": {"OBJECT_NAME": "CYGNUS NG-23", "OBJECT_ID": "2025-208A", "EPOCH": "2025-12-16T20:41:13.172928", "MEAN_MOTION": 15.49626059, "ECCENTRICITY": 0.00031782, "INCLINATION": 51.6308, "RA_OF_ASC_NODE": 122.0659, "ARG_OF_PERICENTER": 259.3256, "MEAN_ANOMALY": 100.7375, "EPHEMERIS_TYPE": 0, "CLASSIFICATION_TYPE": "U", "NORAD_CAT_ID": 65616, "ELEMENT_SET_NO": 999, "REV_AT_EPOCH": 22, "BSTAR": 0.00014251236, "MEAN_MOTION_DOT": 7.581e-05, "MEAN_MOTION_DDOT": 0}, "tle": {"line1": "1 65616U 25208A   25350.86195802  .00007581  00000+0  14251-3 0  9991", "line2": "2 65616  51.6308 122.0659 0003178 259.3256 100.7375 15.49626059   229"}}, "geometry": {"type": "Point", "coordinates": [168.12894975397109, 43.605830788676066]}}, {"type": "Feature", "properties": {"norad_id": 65729, "name": "DRAGONFLY", "group": "stations", "lat": 48.61810990831401, "lon": 175.68291773755374, "alt_km": 345.13828233437835, "timestamp": "2025-12-17T10:52:53.122278+00:00", "meta": {"OBJECT_NAME": "DRAGONFLY", "OBJECT_ID": "1998-067XH", "EPOCH": "2025-12-16T13:13:48.986688", "MEAN_MOTION": 15.7319978, "ECCENTRICITY": 0.00071179, "INCLINATION": 51.6242, "RA_OF_ASC_NODE": 116.2265, "ARG_OF_PERICENTER": 302.756, "MEAN_ANOMALY": 57.2752, "EPHEMERIS_TYPE": 0, "CLASSIFICATION_TYPE": "U", "NORAD_CAT_ID": 65729, "ELEMENT_SET_NO": 999, "REV_AT_EPOCH": 1376, "BSTAR": 0.0010910742, "MEAN_MOTION_DOT": 0.00155828, "MEAN_MOTION_DDOT": 0}, "tle": {"line1": "1 65729U 98067XH  25350.55126142  .00155828  00000+0  10911-2 0  9992", "line2": "2 65729  51.6242 116.2265 0007117 302.7560  57.2752 15.73199780 13768"}}, "geometry": {"type": "Point", "coordinates": [175.68291773755374, 48.61810990831401]}}, {"type": "Feature", "properties": {"norad_id": 65731, "name": "1998-067XK", "group": "stations", "lat": -10.67696253344373, "lon": 104.70674048431675, "alt_km": 369.5677990279564, "timestamp": "2025-12-17T10:52:53.122289+00:00", "meta": {"OBJECT_NAME": "1998-067XK", "OBJECT_ID": "1998-067XK", "EPOCH": "2025-12-16T15:02:12.236928", "MEAN_MOTION": 15.66493016, "ECCENTRICITY": 0.00047907, "INCLINATION": 51.6286, "RA_OF_ASC_NODE": 117.5003, "ARG_OF_PERICENTER": 271.0791, "MEAN_ANOMALY": 88.9655, "EPHEMERIS_TYPE": 0, "CLASSIFICATION_TYPE": "U", "NORAD_CAT_ID": 65731, "ELEMENT_SET_NO": 999, "REV_AT_EPOCH": 1375, "BSTAR": 0.00081582518, "MEAN_MOTION_DOT": 0.00087181, "MEAN_MOTION_DDOT": 0}, "tle": {"line1": "1 65731U 98067XK  25350.62653052  .00087181  00000+0  81583-3 0  9998", "line2": "2 65731  51.6286 117.5003 0004790 271.0791  88.9655 15.66493016 13754"}}, "geometry": {"type": "Point", "coordinates": [104.70674048431675, -10.67696253344373]}}, {"type": "Feature", "properties": {"norad_id": 65732, "name": "RSP-03", "group": "stations", "lat": 8.059437845201176, "lon": 118.92907836300289, "alt_km": 359.08320962882044, "timestamp": "2025-12-17T10:52:53.122299+00:00", "meta": {"OBJECT_NAME": "RSP-03", "OBJECT_ID": "1998-067XL", "EPOCH": "2025-12-16T14:58:29.275680", "MEAN_MOTION": 15.69615447, "ECCENTRICITY": 0.00056224, "INCLINATION": 51.6264, "RA_OF_ASC_NODE": 116.7219, "ARG_OF_PERICENTER": 277.262, "MEAN_ANOMALY": 82.7738, "EPHEMERIS_TYPE": 0, "CLASSIFICATION_TYPE": "U", "NORAD_CAT_ID": 65732, "ELEMENT_SET_NO": 999, "REV_AT_EPOCH": 1377, "BSTAR": 0.00094839264, "MEAN_MOTION_DOT": 0.00115729, "MEAN_MOTION_DDOT": 0}, "tle": {"line1": "1 65732U 98067XL  25350.62394995  .00115729  00000+0  94839-3 0  9995", "line2": "2 65732  51.6264 116.7219 0005622 277.2620  82.7738 15.69615447 13778"}}, "geometry": {"type": "Point", "coordinates": [118.92907836300289, 8.059437845201176]}}, {"type": "Feature", "properties": {"norad_id": 65733, "name": "GHS-01", "group": "stations", "lat": 30.83269502511023, "lon": 139.14795869196007, "alt_km": 335.48594270890226, "timestamp": "2025-12-17T10:52:53.122309+00:00", "meta": {"OBJECT_NAME": "GHS-01", "OBJECT_ID": "1998-067XM", "EPOCH": "2025-12-16T14:56:03.112800", "MEAN_MOTION": 15.76521023, "ECCENTRICITY": 0.00077117, "INCLINATION": 51.6275, "RA_OF_ASC_NODE": 115.2086, "ARG_OF_PERICENTER": 306.7949, "MEAN_ANOMALY": 53.2342, "EPHEMERIS_TYPE": 0, "CLASSIFICATION_TYPE": "U", "NORAD_CAT_ID": 65733, "ELEMENT_SET_NO": 999, "REV_AT_EPOCH": 1379, "BSTAR": 0.0012704377, "MEAN_MOTION_DOT": 0.00211236, "MEAN_MOTION_DDOT": 0}, "tle": {"line1": "1 65733U 98067XM  25350.62225825  .00211236  00000+0  12704-2 0  9991", "line2": "2 65733  51.6275 115.2086 0007711 306.7949  53.2342 15.76521023 13790"}}, "geometry": {"type": "Point", "coordinates": [139.14795869196007, 30.83269502511023]}}, {"type": "Feature", "properties": {"norad_id": 65941, "name": "YOTSUBA-KULOVER", "group": "stations", "lat": -1.4373905779854657, "lon": 115.13257740552774, "alt_km": 387.9072602898914, "timestamp": "2025-12-17T10:52:53.122319+00:00", "meta": {"OBJECT_NAME": "YOTSUBA-KULOVER", "OBJECT_ID": "1998-067XN", "EPOCH": "2025-12-16T14:54:10.853280", "MEAN_MOTION": 15.59985033, "ECCENTRICITY": 0.00014592, "INCLINATION": 51.6282, "RA_OF_ASC_NODE": 120.4613, "ARG_OF_PERICENTER": 292.17, "MEAN_ANOMALY": 67.9139, "EPHEMERIS_TYPE": 0, "CLASSIFICATION_TYPE": "U", "NORAD_CAT_ID": 65941, "ELEMENT_SET_NO": 999, "REV_AT_EPOCH": 1046, "BSTAR": 0.00069919558, "MEAN_MOTION_DOT": 0.00057497, "MEAN_MOTION_DDOT": 0}, "tle": {"line1": "1 65941U 98067XN  25350.62095895  .00057497  00000+0  69920-3 0  9994", "line2": "2 65941  51.6282 120.4613 0001459 292.1700  67.9139 15.59985033 10462"}}, "geometry": {"type": "Point", "coordinates": [115.13257740552774, -1.4373905779854657]}}, {"type": "Feature", "properties": {"norad_id": 65942, "name": "BOTAN", "group": "stations", "lat": 21.64141314959176, "lon": 133.78324778087318, "alt_km": 374.8603124593874, "timestamp": "2025-12-17T10:52:53.122329+00:00", "meta": {"OBJECT_NAME": "BOTAN", "OBJECT_ID": "1998-067XP", "EPOCH": "2025-12-16T14:49:24.708576", "MEAN_MOTION": 15.63698915, "ECCENTRICITY": 0.00028624, "INCLINATION": 51.628, "RA_OF_ASC_NODE": 119.6894, "ARG_OF_PERICENTER": 271.2496, "MEAN_ANOMALY": 88.817, "EPHEMERIS_TYPE": 0, "CLASSIFICATION_TYPE": "U", "NORAD_CAT_ID": 65942, "ELEMENT_SET_NO": 999, "REV_AT_EPOCH": 1047, "BSTAR": 0.00096273878, "MEAN_MOTION_DOT": 0.00092119, "MEAN_MOTION_DDOT": 0}, "tle": {"line1": "1 65942U 98067XP  25350.61764709  .00092119  00000+0  96274-3 0  9993", "line2": "2 65942  51.6280 119.6894 0002862 271.2496  88.8170 15.63698915 10474"}}, "geometry": {"type": "Point", "coordinates": [133.78324778087318, 21.64141314959176]}}, {"type": "Feature", "properties": {"norad_id": 65943, "name": "E-KAGAKU-1", "group": "stations", "lat": -1.9548941941780182, "lon": 114.72537114792193, "alt_km": 389.21990899203047, "timestamp": "2025-12-17T10:52:53.122339+00:00", "meta": {"OBJECT_NAME": "E-KAGAKU-1", "OBJECT_ID": "1998-067XQ", "EPOCH": "2025-12-15T15:50:32.577792", "MEAN_MOTION": 15.59851021, "ECCENTRICITY": 0.00016366, "INCLINATION": 51.6292, "RA_OF_ASC_NODE": 125.299, "ARG_OF_PERICENTER": 221.4661, "MEAN_ANOMALY": 138.6208, "EPHEMERIS_TYPE": 0, "CLASSIFICATION_TYPE": "U", "NORAD_CAT_ID": 65943, "ELEMENT_SET_NO": 999, "REV_AT_EPOCH": 1031, "BSTAR": 0.0006409113, "MEAN_MOTION_DOT": 0.00052357, "MEAN_MOTION_DDOT": 0}, "tle": {"line1": "1 65943U 98067XQ  25349.66009928  .00052357  00000+0  64091-3 0  9994", "line2": "2 65943  51.6292 125.2990 0001636 221.4661 138.6208 15.59851021 10310"}}, "geometry": {"type": "Point", "coordinates": [114.72537114792193, -1.9548941941780182]}}]}